{
    "links": {
        "self": "http://www.neowsapp.com/rest/v1/neo/3773838?api_key=iIulBulltgU6a56xZRHN4H3l9WmuAYTsLGpBGhQ2"
    },
    "id": "3773838",
    "neo_reference_id": "3773838",
    "name": "(2017 GU5)",
    "designation": "2017 GU5",
    "nasa_jpl_url": "http://ssd.jpl.nasa.gov/sbdb.cgi?sstr=3773838",
    "absolute_magnitude_h": 23.4,
    "estimated_diameter": {
        "kilometers": {
            "estimated_diameter_min": 0.0555334912,
            "estimated_diameter_max": 0.1241766613
        },
        "meters": {
            "estimated_diameter_min": 55.5334911581,
            "estimated_diameter_max": 124.1766612574
        },
        "miles": {
            "estimated_diameter_min": 0.0345069009,
            "estimated_diameter_max": 0.0771597762
        },
        "feet": {
            "estimated_diameter_min": 182.1964991311,
            "estimated_diameter_max": 407.4037573197
        }
    },
    "is_potentially_hazardous_asteroid": false,
    "close_approach_data": [
        {
            "close_approach_date": "1937-11-14",
            "close_approach_date_full": "1937-Nov-14 08:14",
            "epoch_date_close_approach": -1013960760000,
            "relative_velocity": {
                "kilometers_per_second": "26.8354573939",
                "kilometers_per_hour": "96607.6466180166",
                "miles_per_hour": "60028.2346444004"
            },
            "miss_distance": {
                "astronomical": "0.4224499392",
                "lunar": "164.3330263488",
                "kilometers": "63197611.085949504",
                "miles": "39269174.5929869952"
            },
            "orbiting_body": "Earth"
        },
        {
            "close_approach_date": "2017-02-19",
            "close_approach_date_full": "2017-Feb-19 04:20",
            "epoch_date_close_approach": 1487478000000,
            "relative_velocity": {
                "kilometers_per_second": "7.1490080344",
                "kilometers_per_hour": "25736.4289238792",
                "miles_per_hour": "15991.6160721737"
            },
            "miss_distance": {
                "astronomical": "0.138686665",
                "lunar": "53.949112685",
                "kilometers": "20747229.68140355",
                "miles": "12891730.72652699"
            },
            "orbiting_body": "Venus"
        },
        {
            "close_approach_date": "2017-03-26",
            "close_approach_date_full": "2017-Mar-26 21:06",
            "epoch_date_close_approach": 1490562360000,
            "relative_velocity": {
                "kilometers_per_second": "14.5806748958",
                "kilometers_per_hour": "52490.4296247587",
                "miles_per_hour": "32615.5116743396"
            },
            "miss_distance": {
                "astronomical": "0.0637960612",
                "lunar": "24.8166678068",
                "kilometers": "9543754.869909644",
                "miles": "5930214.2884713272"
            },
            "orbiting_body": "Earth"
        }
    ],
    "orbital_data": {
        "orbit_id": "4",
        "orbit_determination_date": "2017-04-23 06:18:36",
        "first_observation_date": "2017-04-05",
        "last_observation_date": "2017-04-23",
        "data_arc_in_days": 18,
        "observations_used": 30,
        "orbit_uncertainty": "8",
        "minimum_orbit_intersection": ".0296084",
        "jupiter_tisserand_invariant": "3.041",
        "epoch_osculation": "2457853.5",
        "eccentricity": ".6749436144119381",
        "semi_major_axis": "2.602605940295336",
        "inclination": "3.607613629832822",
        "ascending_node_longitude": "112.7675461653976",
        "orbital_period": "1533.596299451984",
        "perihelion_distance": ".8459936800624213",
        "perihelion_argument": "20.08998626896829",
        "aphelion_distance": "4.35921820052825",
        "perihelion_time": "2457803.652482777241",
        "mean_anomaly": "11.70132335778702",
        "mean_motion": ".2347423504664445",
        "equinox": "J2000",
        "orbit_class": {
            "orbit_class_type": "APO",
            "orbit_class_description": "Near-Earth asteroid orbits which cross the Earth’s orbit similar to that of 1862 Apollo",
            "orbit_class_range": "a (semi-major axis) > 1.0 AU; q (perihelion) < 1.017 AU"
        }
    },
    "is_sentry_object": false
}